[{"OBJECT_NAME":"STARLINK-5799","OBJECT_ID":"2023-042S","EPOCH":"2026-03-09T00:39:41.630688","MEAN_MOTION":15.02544158,"ECCENTRICITY":0.00014327,"INCLINATION":43.0042,"RA_OF_ASC_NODE":59.4584,"ARG_OF_PERICENTER":255.7667,"MEAN_ANOMALY":104.3017,"EPHEMERIS_TYPE":0,"CLASSIFICATION_TYPE":"U","NORAD_CAT_ID":56002,"ELEMENT_SET_NO":999,"REV_AT_EPOCH":16281,"BSTAR":0.00011105933,"MEAN_MOTION_DOT":1.297e-5,"MEAN_MOTION_DDOT":0},{"OBJECT_NAME":"NOAA 16 DEB","OBJECT_ID":"2000-055BZ","EPOCH":"2026-03-09T09:57:46.840608","MEAN_MOTION":15.04968987,"ECCENTRICITY":0.00133628,"INCLINATION":98.8453,"RA_OF_ASC_NODE":286.076,"ARG_OF_PERICENTER":194.204,"MEAN_ANOMALY":165.8809,"EPHEMERIS_TYPE":0,"CLASSIFICATION_TYPE":"U","NORAD_CAT_ID":41142,"ELEMENT_SET_NO":999,"REV_AT_EPOCH":53866,"BSTAR":0.0051237154,"MEAN_MOTION_DOT":0.00073426,"MEAN_MOTION_DDOT":0}]
